NORAD_CAT_ID,OBJECT_NAME,OBJECT_TYPE,EPOCH,MEAN_MOTION,ECCENTRICITY,INCLINATION,RA_OF_ASC_NODE,ARG_OF_PERICENTER,MEAN_ANOMALY,BSTAR,MEAN_MOTION_DOT,MEAN_MOTION_DDOT,TLE_LINE0,TLE_LINE1,TLE_LINE2,SEMIMAJOR_AXIS,PERIOD,APOGEE,PERIGEE,DECAYED
53917.0,STARLINK-5036,PAYLOAD,2023-03-22 11:02:22,15.08836833,0.0001282,53.2163,136.9541,74.8605,285.2529,2.8981e-05,1.73e-06,0.0,0 STARLINK-5036,1 53917U 22119AH  23081.45998111  .00000173  00000-0  28981-4 0  9995,2 53917  53.2163 136.9541 0001282  74.8605 285.2529 15.08836833 27871,6917.89,95.438,540.642,538.868,0.0
53917.0,STARLINK-5036,PAYLOAD,2023-03-23 02:56:13,15.08849839,0.0001437,53.2168,133.9811,95.4288,264.6868,4.6017e-05,4.45e-06,0.0,0 STARLINK-5036,1 53917U 22119AH  23082.12237538  .00000445  00000-0  46017-4 0  9991,2 53917  53.2168 133.9811 0001437  95.4288 264.6868 15.08849839 27979,6917.85,95.437,540.709,538.721,0.0
53917.0,STARLINK-5036,PAYLOAD,2023-03-23 10:53:08,15.08852794,0.0001449,53.2168,132.4941,94.6067,265.5091,0.00015603,2.197e-05,0.0,0 STARLINK-5036,1 53917U 22119AH  23082.45357323  .00002197  00000-0  15603-3 0  9994,2 53917  53.2168 132.4941 0001449  94.6067 265.5091 15.08852794 28441,6917.841,95.437,540.709,538.704,0.0
53917.0,STARLINK-5036,PAYLOAD,2023-03-24 04:22:23,15.08860564,0.0001451,53.2171,129.2234,76.3513,283.764,0.00044178,6.754e-05,0.0,0 STARLINK-5036,1 53917U 22119AH  23083.18221210  .00006754  00000-0  44178-3 0  9992,2 53917  53.2171 129.2234 0001451  76.3513 283.7640 15.08860564 28132,6917.818,95.436,540.686,538.679,0.0
53917.0,STARLINK-5036,PAYLOAD,2023-03-24 10:43:54,15.08884937,0.000132,53.2169,128.0331,82.0467,278.0675,0.00090904,0.00014227,0.0,0 STARLINK-5036,1 53917U 22119AH  23083.44716190  .00014227  00000-0  90904-3 0  9999,2 53917  53.2169 128.0331 0001320  82.0467 278.0675 15.08884937 28170,6917.743,95.435,540.521,538.695,0.0
53917.0,STARLINK-5036,PAYLOAD,2023-03-24 20:16:14,15.08842218,0.0001647,53.2172,126.251,71.4751,288.642,-6.7744e-05,-1.366e-05,0.0,0 STARLINK-5036,1 53917U 22119AH  23083.84461283 -.00001366  00000-0 -67744-4 0  9992,2 53917  53.2172 126.2510 0001647  71.4751 288.6420 15.08842218 28231,6917.874,95.437,540.878,538.599,0.0
53917.0,STARLINK-5036,PAYLOAD,2023-03-25 02:37:48,15.08804854,0.000131,53.2174,125.0613,82.1421,277.972,-0.00071041,-0.00011565,0.0,0 STARLINK-5036,1 53917U 22119AH  23084.10958847 -.00011565  00000-0 -71041-3 0  9995,2 53917  53.2174 125.0613 0001310  82.1421 277.9720 15.08804854 28276,6917.988,95.44,540.759,538.947,0.0
53917.0,STARLINK-5036,PAYLOAD,2023-03-25 20:07:03,15.08814459,0.0001079,53.2183,121.7903,86.676,273.4355,-0.00017703,-3.102e-05,0.0,0 STARLINK-5036,1 53917U 22119AH  23084.83823821 -.00003102  00000-0 -17703-3 0  9991,2 53917  53.2183 121.7903 0001079  86.6760 273.4355 15.08814459 28387,6917.958,95.439,540.57,539.077,0.0
53917.0,STARLINK-5036,PAYLOAD,2023-03-26 02:28:36,15.08826393,8.68e-05,53.2177,120.598,112.3284,247.7801,1.9556e-05,2.3e-07,0.0,0 STARLINK-5036,1 53917U 22119AH  23085.10319708  .00000023  00000-0  19556-4 0  9992,2 53917  53.2177 120.5980 0000868 112.3284 247.7801 15.08826393 28420,6917.922,95.438,540.387,539.187,0.0
53917.0,STARLINK-5036,PAYLOAD,2023-03-26 08:50:09,15.08831071,8.5e-05,53.2165,119.409,102.6838,257.4249,0.00053765,8.277e-05,0.0,0 STARLINK-5036,1 53917U 22119AH  23085.36816155  .00008277  00000-0  53765-3 0  9996,2 53917  53.2165 119.4090 0000850 102.6838 257.4249 15.08831071 28887,6917.908,95.438,540.361,539.185,0.0
53917.0,STARLINK-5036,PAYLOAD,2023-03-27 02:19:23,15.08859618,0.0001137,53.2162,116.1369,111.792,248.3193,0.0010093,0.0001582,0.0,0 STARLINK-5036,1 53917U 22119AH  23086.09679939  .00015820  00000-0  10093-2 0  9992,2 53917  53.2162 116.1369 0001137 111.7920 248.3193 15.08859618 28579,6917.82,95.436,540.472,538.899,0.0
53917.0,STARLINK-5036,PAYLOAD,2023-03-27 08:40:55,15.08879016,0.0001139,53.2167,114.9479,110.4641,249.6473,0.0013881,0.00021896,0.0,0 STARLINK-5036,1 53917U 22119AH  23086.36175252  .00021896  00000-0  13881-2 0  9999,2 53917  53.2167 114.9479 0001139 110.4641 249.6473 15.08879016 28614,6917.761,95.435,540.414,538.838,0.0
53917.0,STARLINK-5036,PAYLOAD,2023-03-27 11:51:41,15.08880504,0.0001107,53.2171,114.3544,104.4886,255.6229,0.0012228,0.00019248,0.0,0 STARLINK-5036,1 53917U 22119AH  23086.49422974  .00019248  00000-0  12228-2 0  9991,2 53917  53.2171 114.3544 0001107 104.4886 255.6229 15.08880504 29054,6917.757,95.435,540.387,538.856,0.0
53917.0,STARLINK-5036,PAYLOAD,2023-03-27 18:13:13,15.08890146,0.0001094,53.2171,113.1652,103.2241,256.8873,0.0012166,0.00019154,0.0,0 STARLINK-5036,1 53917U 22119AH  23086.75918164  .00019154  00000-0  12166-2 0  9998,2 53917  53.2171 113.1652 0001094 103.2241 256.8873 15.08890146 29093,6917.727,95.434,540.349,538.835,0.0
53917.0,STARLINK-5036,PAYLOAD,2023-03-28 02:10:07,15.08897827,0.0001139,53.2171,111.6778,109.2343,250.8772,0.0010434,0.00016383,0.0,0 STARLINK-5036,1 53917U 22119AH  23087.09037021  .00016383  00000-0  10434-2 0  9997,2 53917  53.2171 111.6778 0001139 109.2343 250.8772 15.08897827 28728,6917.704,95.434,540.357,538.781,0.0
53917.0,STARLINK-5036,PAYLOAD,2023-03-28 08:31:42,15.08849586,0.0001216,53.2177,110.4881,120.549,239.5622,0.00032771,4.933e-05,0.0,0 STARLINK-5036,1 53917U 22119AH  23087.35535233  .00004933  00000-0  32771-3 0  9991,2 53917  53.2177 110.4881 0001216 120.5490 239.5622 15.08849586 28762,6917.851,95.437,540.557,538.875,0.0
53917.0,STARLINK-5036,PAYLOAD,2023-03-28 11:42:28,15.08847465,0.0001069,53.2178,109.8926,96.8433,263.2681,0.00047822,7.333e-05,0.0,0 STARLINK-5036,1 53917U 22119AH  23087.48783338  .00007333  00000-0  47822-3 0  9996,2 53917  53.2178 109.8926 0001069  96.8433 263.2681 15.08847465 29206,6917.858,95.437,540.462,538.983,0.0
53917.0,STARLINK-5036,PAYLOAD,2023-03-28 18:04:01,15.08847273,0.0001116,53.2174,108.7032,104.4524,255.6592,0.00060408,9.341e-05,0.0,0 STARLINK-5036,1 53917U 22119AH  23087.75279326  .00009341  00000-0  60408-3 0  9999,2 53917  53.2174 108.7032 0001116 104.4524 255.6592 15.08847273 29245,6917.858,95.437,540.495,538.951,0.0
53917.0,STARLINK-5036,PAYLOAD,2023-03-29 08:22:28,15.08863749,0.0001124,53.217,106.027,103.0161,257.0957,0.00078941,0.00012306,0.0,0 STARLINK-5036,1 53917U 22119AH  23088.34894625  .00012306  00000-0  78941-3 0  9996,2 53917  53.2170 106.0270 0001124 103.0161 257.0957 15.08863749 29334,6917.808,95.436,540.45,538.895,0.0
53917.0,STARLINK-5036,PAYLOAD,2023-03-29 17:54:47,15.08850735,0.0001426,53.2176,104.2437,104.3445,255.7706,0.000135,1.862e-05,0.0,0 STARLINK-5036,1 53917U 22119AH  23088.74638561  .00001862  00000-0  13500-3 0  9990,2 53917  53.2176 104.2437 0001426 104.3445 255.7706 15.08850735 28976,6917.848,95.437,540.699,538.726,0.0
53917.0,STARLINK-5036,PAYLOAD,2023-03-30 09:48:39,15.08845073,0.000138,53.2182,101.2691,93.5758,266.5392,6.1294e-05,6.88e-06,0.0,0 STARLINK-5036,1 53917U 22119AH  23089.40878719  .00000688  00000-0  61294-4 0  9994,2 53917  53.2182 101.2691 0001380  93.5758 266.5392 15.08845073 29079,6917.865,95.437,540.685,538.775,0.0
53917.0,STARLINK-5036,PAYLOAD,2023-03-30 12:59:25,15.08848549,0.0001411,53.2179,100.6741,98.418,261.6972,0.00013401,1.846e-05,0.0,0 STARLINK-5036,1 53917U 22119AH  23089.54126492  .00001846  00000-0  13401-3 0  9996,2 53917  53.2179 100.6741 0001411  98.4180 261.6972 15.08848549 29512,6917.854,95.437,540.695,538.743,0.0
53917.0,STARLINK-5036,PAYLOAD,2023-03-31 17:36:21,15.08855772,0.0001378,53.2174,95.3209,106.6862,253.4281,0.00032577,4.903e-05,0.0,0 STARLINK-5036,1 53917U 22119AH  23090.73358050  .00004903  00000-0  32577-3 0  9998,2 53917  53.2174  95.3209 0001378 106.6862 253.4281 15.08855772 29278,6917.832,95.437,540.65,538.744,0.0
53917.0,STARLINK-5036,PAYLOAD,2023-03-31 23:57:52,15.08872901,9.31e-05,53.2178,94.1315,109.1538,250.9555,0.00066944,0.00010392,0.0,0 STARLINK-5036,1 53917U 22119AH  23090.99853008  .00010392  00000-0  66944-3 0  9993,2 53917  53.2178  94.1315 0000931 109.1538 250.9555 15.08872901 29313,6917.78,95.435,540.289,539.001,0.0
53917.0,STARLINK-5036,PAYLOAD,2023-04-01 09:30:13,15.08828427,0.0001339,53.2173,92.3466,106.8818,253.2321,-0.00027882,-4.721e-05,0.0,0 STARLINK-5036,1 53917U 22119AH  23091.39598615 -.00004721  00000-0 -27882-3 0  9997,2 53917  53.2173  92.3466 0001339 106.8818 253.2321 15.08828427 29370,6917.916,95.438,540.707,538.854,0.0
53917.0,STARLINK-5036,PAYLOAD,2023-04-01 17:27:09,15.08829204,0.0001405,53.2179,90.8602,104.3525,255.7624,-0.0001646,-2.906e-05,0.0,0 STARLINK-5036,1 53917U 22119AH  23091.72718870 -.00002906  00000-0 -16460-3 0  9994,2 53917  53.2179  90.8602 0001405 104.3525 255.7624 15.08829204 29842,6917.913,95.438,540.75,538.806,0.0
53917.0,STARLINK-5036,PAYLOAD,2023-04-02 04:34:51,15.08837574,0.0001381,53.2183,88.779,102.4877,257.627,9.7913e-05,1.271e-05,0.0,0 STARLINK-5036,1 53917U 22119AH  23092.19086946  .00001271  00000-0  97913-4 0  9993,2 53917  53.2183  88.7790 0001381 102.4877 257.6270 15.08837574 29491,6917.888,95.438,540.708,538.797,0.0
53917.0,STARLINK-5036,PAYLOAD,2023-04-02 09:21:00,15.08843423,0.0001454,53.2171,87.8872,98.5577,261.558,0.00064249,9.953e-05,0.0,0 STARLINK-5036,1 53917U 22119AH  23092.38959056  .00009953  00000-0  64249-3 0  9995,2 53917  53.2171  87.8872 0001454  98.5577 261.5580 15.08843423 29940,6917.87,95.437,540.741,538.729,0.0
53917.0,STARLINK-5036,PAYLOAD,2023-04-02 17:17:56,15.08840915,0.0001391,53.2155,86.402,90.9569,269.1583,0.00076202,0.00011861,0.0,0 STARLINK-5036,1 53917U 22119AH  23092.72079447  .00011861  00000-0  76202-3 0  9993,2 53917  53.2155  86.4020 0001391  90.9569 269.1583 15.08840915 29994,6917.878,95.437,540.705,538.78,0.0
53917.0,STARLINK-5036,PAYLOAD,2023-04-03 09:11:47,15.08855931,0.0001478,53.2168,83.427,97.15,262.966,0.00079673,0.0001242,0.0,0 STARLINK-5036,1 53917U 22119AH  23093.38319102  .00012420  00000-0  79673-3 0  9998,2 53917  53.2168  83.4270 0001478  97.1500 262.9660 15.08855931 29678,6917.832,95.437,540.719,538.674,0.0
